{"fetched_at":"2026-07-10T18:08:09.363Z","source":"https://celestrak.org/NORAD/elements/gp.php?NAME=FIREFLY&FORMAT=JSON","constellation":"pixxel","records":[{"OBJECT_NAME":"FIREFLY-1","OBJECT_ID":"2025-009CW","EPOCH":"2026-07-10T06:52:58.668960","CLASSIFICATION_TYPE":"U","MEAN_MOTION":14.92733512,"ECCENTRICITY":0.00023131,"INCLINATION":97.7063,"RA_OF_ASC_NODE":268.9381,"ARG_OF_PERICENTER":247.4022,"MEAN_ANOMALY":112.6953,"EPHEMERIS_TYPE":0,"NORAD_CAT_ID":62701,"ELEMENT_SET_NO":999,"REV_AT_EPOCH":8076,"BSTAR":0.000094742793,"MEAN_MOTION_DOT":0.00000923,"MEAN_MOTION_DDOT":0},{"OBJECT_NAME":"FIREFLY-2","OBJECT_ID":"2025-009CZ","EPOCH":"2026-07-10T06:21:08.304480","CLASSIFICATION_TYPE":"U","MEAN_MOTION":14.92729158,"ECCENTRICITY":0.00068573,"INCLINATION":97.7019,"RA_OF_ASC_NODE":268.689,"ARG_OF_PERICENTER":19.1042,"MEAN_ANOMALY":341.0433,"EPHEMERIS_TYPE":0,"NORAD_CAT_ID":62704,"ELEMENT_SET_NO":999,"REV_AT_EPOCH":8076,"BSTAR":0.000057938102,"MEAN_MOTION_DOT":0.00000543,"MEAN_MOTION_DDOT":0},{"OBJECT_NAME":"FIREFLY-3","OBJECT_ID":"2025-009DF","EPOCH":"2026-07-10T05:49:56.027712","CLASSIFICATION_TYPE":"U","MEAN_MOTION":14.92794098,"ECCENTRICITY":0.00048671,"INCLINATION":97.7053,"RA_OF_ASC_NODE":268.9252,"ARG_OF_PERICENTER":84.4965,"MEAN_ANOMALY":275.6809,"EPHEMERIS_TYPE":0,"NORAD_CAT_ID":62710,"ELEMENT_SET_NO":999,"REV_AT_EPOCH":8077,"BSTAR":0.000089270575,"MEAN_MOTION_DOT":0.00000868,"MEAN_MOTION_DDOT":0}]}
