FIREFLY-1               
1 62701U 25009CW  26191.28679015  .00000923  00000+0  94743-4 0  9993
2 62701  97.7063 268.9381 0002313 247.4022 112.6953 14.92733512 80762
FIREFLY-2               
1 62704U 25009CZ  26191.26467945  .00000543  00000+0  57938-4 0  9994
2 62704  97.7019 268.6890 0006857  19.1042 341.0433 14.92729158 80763
FIREFLY-3               
1 62710U 25009DF  26191.24300958  .00000868  00000+0  89271-4 0  9994
2 62710  97.7053 268.9252 0004867  84.4965 275.6809 14.92794098 80776
